CCSDS_OMM_VERS = 2.0
CREATION_DATE  = 
ORIGINATOR     = 

OBJECT_NAME    = STARLINK-35727
OBJECT_ID      = 2025-247S
CENTER_NAME    = EARTH
REF_FRAME      = TEME
TIME_SYSTEM    = UTC
MEAN_ELEMENT_THEORY = SGP/SGP4

EPOCH          = 2025-11-23T23:47:17.518272
MEAN_MOTION    = 15.49342816
ECCENTRICITY   = .0001246
INCLINATION    = 53.1594
RA_OF_ASC_NODE = 325.7420
ARG_OF_PERICENTER = 88.8427
MEAN_ANOMALY   = 271.2725

EPHEMERIS_TYPE = 0
CLASSIFICATION_TYPE = U
NORAD_CAT_ID   = 66281
ELEMENT_SET_NO = 999
REV_AT_EPOCH   = 480
BSTAR          = .13345E-2
MEAN_MOTION_DOT = .7457E-3
MEAN_MOTION_DDOT = 0

CCSDS_OMM_VERS = 2.0
CREATION_DATE  = 
ORIGINATOR     = 

OBJECT_NAME    = STARLINK-35776
OBJECT_ID      = 2025-247T
CENTER_NAME    = EARTH
REF_FRAME      = TEME
TIME_SYSTEM    = UTC
MEAN_ELEMENT_THEORY = SGP/SGP4

EPOCH          = 2025-11-23T23:46:46.726176
MEAN_MOTION    = 15.49338431
ECCENTRICITY   = .0001236
INCLINATION    = 53.1593
RA_OF_ASC_NODE = 325.7393
ARG_OF_PERICENTER = 89.7581
MEAN_ANOMALY   = 270.3570

EPHEMERIS_TYPE = 0
CLASSIFICATION_TYPE = U
NORAD_CAT_ID   = 66282
ELEMENT_SET_NO = 999
REV_AT_EPOCH   = 480
BSTAR          = .19888E-2
MEAN_MOTION_DOT = .111876E-2
MEAN_MOTION_DDOT = 0

CCSDS_OMM_VERS = 2.0
CREATION_DATE  = 
ORIGINATOR     = 

OBJECT_NAME    = STARLINK-35774
OBJECT_ID      = 2025-247U
CENTER_NAME    = EARTH
REF_FRAME      = TEME
TIME_SYSTEM    = UTC
MEAN_ELEMENT_THEORY = SGP/SGP4

EPOCH          = 2025-11-23T23:46:17.116032
MEAN_MOTION    = 15.49351383
ECCENTRICITY   = .0000818
INCLINATION    = 53.1593
RA_OF_ASC_NODE = 325.7369
ARG_OF_PERICENTER = 85.1454
MEAN_ANOMALY   = 274.9649

EPHEMERIS_TYPE = 0
CLASSIFICATION_TYPE = U
NORAD_CAT_ID   = 66283
ELEMENT_SET_NO = 999
REV_AT_EPOCH   = 480
BSTAR          = .13676E-2
MEAN_MOTION_DOT = .76475E-3
MEAN_MOTION_DDOT = 0

CCSDS_OMM_VERS = 2.0
CREATION_DATE  = 
ORIGINATOR     = 

OBJECT_NAME    = STARLINK-35830
OBJECT_ID      = 2025-247V
CENTER_NAME    = EARTH
REF_FRAME      = TEME
TIME_SYSTEM    = UTC
MEAN_ELEMENT_THEORY = SGP/SGP4

EPOCH          = 2025-11-23T23:45:47.459232
MEAN_MOTION    = 15.49328571
ECCENTRICITY   = .0001257
INCLINATION    = 53.1594
RA_OF_ASC_NODE = 325.7340
ARG_OF_PERICENTER = 93.4732
MEAN_ANOMALY   = 266.6421

EPHEMERIS_TYPE = 0
CLASSIFICATION_TYPE = U
NORAD_CAT_ID   = 66284
ELEMENT_SET_NO = 999
REV_AT_EPOCH   = 480
BSTAR          = .18889E-2
MEAN_MOTION_DOT = .106114E-2
MEAN_MOTION_DDOT = 0

CCSDS_OMM_VERS = 2.0
CREATION_DATE  = 
ORIGINATOR     = 

OBJECT_NAME    = STARLINK-35819
OBJECT_ID      = 2025-247W
CENTER_NAME    = EARTH
REF_FRAME      = TEME
TIME_SYSTEM    = UTC
MEAN_ELEMENT_THEORY = SGP/SGP4

EPOCH          = 2025-11-23T23:45:17.862912
MEAN_MOTION    = 15.49319164
ECCENTRICITY   = .0001261
INCLINATION    = 53.1595
RA_OF_ASC_NODE = 325.7325
ARG_OF_PERICENTER = 68.4232
MEAN_ANOMALY   = 291.6911

EPHEMERIS_TYPE = 0
CLASSIFICATION_TYPE = U
NORAD_CAT_ID   = 66285
ELEMENT_SET_NO = 999
REV_AT_EPOCH   = 480
BSTAR          = .19196E-2
MEAN_MOTION_DOT = .107834E-2
MEAN_MOTION_DDOT = 0

CCSDS_OMM_VERS = 2.0
CREATION_DATE  = 
ORIGINATOR     = 

OBJECT_NAME    = STARLINK-35783
OBJECT_ID      = 2025-247X
CENTER_NAME    = EARTH
REF_FRAME      = TEME
TIME_SYSTEM    = UTC
MEAN_ELEMENT_THEORY = SGP/SGP4

EPOCH          = 2025-11-23T23:44:48.048000
MEAN_MOTION    = 15.49331330
ECCENTRICITY   = .0001243
INCLINATION    = 53.1594
RA_OF_ASC_NODE = 325.7293
ARG_OF_PERICENTER = 77.2840
MEAN_ANOMALY   = 282.8308

EPHEMERIS_TYPE = 0
CLASSIFICATION_TYPE = U
NORAD_CAT_ID   = 66286
ELEMENT_SET_NO = 999
REV_AT_EPOCH   = 480
BSTAR          = .19759E-2
MEAN_MOTION_DOT = .111105E-2
MEAN_MOTION_DDOT = 0

CCSDS_OMM_VERS = 2.0
CREATION_DATE  = 
ORIGINATOR     = 

OBJECT_NAME    = STARLINK-34884
OBJECT_ID      = 2025-247Y
CENTER_NAME    = EARTH
REF_FRAME      = TEME
TIME_SYSTEM    = UTC
MEAN_ELEMENT_THEORY = SGP/SGP4

EPOCH          = 2025-11-23T23:44:18.420576
MEAN_MOTION    = 15.49324992
ECCENTRICITY   = .0001356
INCLINATION    = 53.1594
RA_OF_ASC_NODE = 325.7278
ARG_OF_PERICENTER = 88.1812
MEAN_ANOMALY   = 271.9353

EPHEMERIS_TYPE = 0
CLASSIFICATION_TYPE = U
NORAD_CAT_ID   = 66287
ELEMENT_SET_NO = 999
REV_AT_EPOCH   = 480
BSTAR          = .20098E-2
MEAN_MOTION_DOT = .113021E-2
MEAN_MOTION_DDOT = 0

CCSDS_OMM_VERS = 2.0
CREATION_DATE  = 
ORIGINATOR     = 

OBJECT_NAME    = STARLINK-34896
OBJECT_ID      = 2025-247Z
CENTER_NAME    = EARTH
REF_FRAME      = TEME
TIME_SYSTEM    = UTC
MEAN_ELEMENT_THEORY = SGP/SGP4

EPOCH          = 2025-11-23T23:43:48.704160
MEAN_MOTION    = 15.49332609
ECCENTRICITY   = .0001311
INCLINATION    = 53.1594
RA_OF_ASC_NODE = 325.7250
ARG_OF_PERICENTER = 86.4952
MEAN_ANOMALY   = 273.6207

EPHEMERIS_TYPE = 0
CLASSIFICATION_TYPE = U
NORAD_CAT_ID   = 66288
ELEMENT_SET_NO = 999
REV_AT_EPOCH   = 480
BSTAR          = .19177E-2
MEAN_MOTION_DOT = .107782E-2
MEAN_MOTION_DDOT = 0

CCSDS_OMM_VERS = 2.0
CREATION_DATE  = 
ORIGINATOR     = 

OBJECT_NAME    = STARLINK-35802
OBJECT_ID      = 2025-247AA
CENTER_NAME    = EARTH
REF_FRAME      = TEME
TIME_SYSTEM    = UTC
MEAN_ELEMENT_THEORY = SGP/SGP4

EPOCH          = 2025-11-23T23:43:19.053408
MEAN_MOTION    = 15.49323540
ECCENTRICITY   = .0001244
INCLINATION    = 53.1595
RA_OF_ASC_NODE = 325.7230
ARG_OF_PERICENTER = 68.1019
MEAN_ANOMALY   = 292.0122

EPHEMERIS_TYPE = 0
CLASSIFICATION_TYPE = U
NORAD_CAT_ID   = 66289
ELEMENT_SET_NO = 999
REV_AT_EPOCH   = 480
BSTAR          = .19354E-2
MEAN_MOTION_DOT = .108758E-2
MEAN_MOTION_DDOT = 0

CCSDS_OMM_VERS = 2.0
CREATION_DATE  = 
ORIGINATOR     = 

OBJECT_NAME    = STARLINK-35799
OBJECT_ID      = 2025-247AB
CENTER_NAME    = EARTH
REF_FRAME      = TEME
TIME_SYSTEM    = UTC
MEAN_ELEMENT_THEORY = SGP/SGP4

EPOCH          = 2025-11-23T09:46:47.931744
MEAN_MOTION    = 15.49330175
ECCENTRICITY   = .0001465
INCLINATION    = 53.1594
RA_OF_ASC_NODE = 328.4956
ARG_OF_PERICENTER = 96.5047
MEAN_ANOMALY   = 263.6129

EPHEMERIS_TYPE = 0
CLASSIFICATION_TYPE = U
NORAD_CAT_ID   = 66290
ELEMENT_SET_NO = 999
REV_AT_EPOCH   = 476
BSTAR          = .16753E-2
MEAN_MOTION_DOT = .93922E-3
MEAN_MOTION_DDOT = 0

CCSDS_OMM_VERS = 2.0
CREATION_DATE  = 
ORIGINATOR     = 

OBJECT_NAME    = STARLINK-35800
OBJECT_ID      = 2025-247AC
CENTER_NAME    = EARTH
REF_FRAME      = TEME
TIME_SYSTEM    = UTC
MEAN_ELEMENT_THEORY = SGP/SGP4

EPOCH          = 2025-11-23T23:41:49.996608
MEAN_MOTION    = 15.49330735
ECCENTRICITY   = .0001343
INCLINATION    = 53.1593
RA_OF_ASC_NODE = 325.7151
ARG_OF_PERICENTER = 80.6981
MEAN_ANOMALY   = 279.4180

EPHEMERIS_TYPE = 0
CLASSIFICATION_TYPE = U
NORAD_CAT_ID   = 66291
ELEMENT_SET_NO = 999
REV_AT_EPOCH   = 485
BSTAR          = .20867E-2
MEAN_MOTION_DOT = .117457E-2
MEAN_MOTION_DDOT = 0

CCSDS_OMM_VERS = 2.0
CREATION_DATE  = 
ORIGINATOR     = 

OBJECT_NAME    = STARLINK-35798
OBJECT_ID      = 2025-247AD
CENTER_NAME    = EARTH
REF_FRAME      = TEME
TIME_SYSTEM    = UTC
MEAN_ELEMENT_THEORY = SGP/SGP4

EPOCH          = 2025-11-23T23:42:19.694016
MEAN_MOTION    = 15.49338172
ECCENTRICITY   = .0001395
INCLINATION    = 53.1596
RA_OF_ASC_NODE = 325.7180
ARG_OF_PERICENTER = 69.5610
MEAN_ANOMALY   = 290.5548

EPHEMERIS_TYPE = 0
CLASSIFICATION_TYPE = U
NORAD_CAT_ID   = 66292
ELEMENT_SET_NO = 999
REV_AT_EPOCH   = 480
BSTAR          = .16091E-2
MEAN_MOTION_DOT = .90174E-3
MEAN_MOTION_DDOT = 0

