STARLINK-35727          
1 66281U 25247S   25327.99117498  .00074570  00000+0  13345-2 0  9990
2 66281  53.1594 325.7420 0001246  88.8427 271.2725 15.49342816  4806
STARLINK-35776          
1 66282U 25247T   25327.99081859  .00111876  00000+0  19888-2 0  9991
2 66282  53.1593 325.7393 0001236  89.7581 270.3570 15.49338431  4801
STARLINK-35774          
1 66283U 25247U   25327.99047588  .00076475  00000+0  13676-2 0  9997
2 66283  53.1593 325.7369 0000818  85.1454 274.9649 15.49351383  4807
STARLINK-35830          
1 66284U 25247V   25327.99013263  .00106114  00000+0  18889-2 0  9996
2 66284  53.1594 325.7340 0001257  93.4732 266.6421 15.49328571  4806
STARLINK-35819          
1 66285U 25247W   25327.98979008  .00107834  00000+0  19196-2 0  9996
2 66285  53.1595 325.7325 0001261  68.4232 291.6911 15.49319164  4803
STARLINK-35783          
1 66286U 25247X   25327.98944500  .00111105  00000+0  19759-2 0  9997
2 66286  53.1594 325.7293 0001243  77.2840 282.8308 15.49331330  4801
STARLINK-34884          
1 66287U 25247Y   25327.98910209  .00113021  00000+0  20098-2 0  9994
2 66287  53.1594 325.7278 0001356  88.1812 271.9353 15.49324992  4805
STARLINK-34896          
1 66288U 25247Z   25327.98875815  .00107782  00000+0  19177-2 0  9991
2 66288  53.1594 325.7250 0001311  86.4952 273.6207 15.49332609  4804
STARLINK-35802          
1 66289U 25247AA  25327.98841497  .00108758  00000+0  19354-2 0  9992
2 66289  53.1595 325.7230 0001244  68.1019 292.0122 15.49323540  4805
STARLINK-35799          
1 66290U 25247AB  25327.40749921  .00093922  00000+0  16753-2 0  9996
2 66290  53.1594 328.4956 0001465  96.5047 263.6129 15.49330175  4760
STARLINK-35800          
1 66291U 25247AC  25327.98738422  .00117457  00000+0  20867-2 0  9995
2 66291  53.1593 325.7151 0001343  80.6981 279.4180 15.49330735  4857
STARLINK-35798          
1 66292U 25247AD  25327.98772794  .00090174  00000+0  16091-2 0  9996
2 66292  53.1596 325.7180 0001395  69.5610 290.5548 15.49338172  4805
